ORBCOMM FM20            
1 25416U 98046D   24203.69784139  .00002242  00000+0  82113-3 0  9990
2 25416  44.9951 304.5053 0001808 238.2726 121.7945 14.35477837356786
ORBCOMM FM16            
1 25417U 98046E   24203.60481078  .00003357  00000+0  11797-2 0  9995
2 25417  44.9948 300.1450 0001651  92.2999 267.8037 14.36553302356677
ORBCOMM FM15            
1 25418U 98046F   24203.50608449  .00002898  00000+0  10309-2 0  9995
2 25418  44.9980 304.8463 0001450 103.2641 256.8369 14.36262068356664
ORBCOMM FM14            
1 25419U 98046G   24203.52141810  .00003296  00000+0  11612-2 0  9993
2 25419  44.9970 303.7799 0000149 159.8548 200.2306 14.36460566356624
ORBCOMM FM13            
1 25420U 98046H   24203.74404912  .00002817  00000+0  10151-2 0  9999
2 25420  44.9985 308.0234 0002450  57.0654 303.0428 14.35683311356843
ORBCOMM FM21            
1 25475U 98053A   24203.55999434  .00002925  00000+0  10544-2 0  9990
2 25475  45.0093  33.3222 0000361  92.4686 267.6203 14.35574641349705
ORBCOMM FM22            
1 25476U 98053B   24203.57917117  .00002792  00000+0  99730-3 0  9998
2 25476  45.0087  30.2063 0001501   8.3107 351.7765 14.36154871349707
ORBCOMM FM23            
1 25477U 98053C   24203.58578661  .00002708  00000+0  97907-3 0  9998
2 25477  45.0093  35.6003 0001032  13.1965 346.8910 14.35623616349853
